ORBCOMM FM05            
1 25117U 97084F   25365.42433553  .00003740  00000+0  10623-2 0  9991
2 25117  45.0125 140.4922 0003125 157.1104 202.9887 14.46780828469167
ORBCOMM FM06            
1 25118U 97084G   25365.67661797  .00004115  00000+0  11608-2 0  9993
2 25118  45.0120 138.7787 0002153 171.0060 211.7678 14.46947398470129
ORBCOMM FM07            
1 25119U 97084H   25365.68445099  .00003496  00000+0  99188-3 0  9991
2 25119  45.0098 139.4870 0003796 151.0828 209.0235 14.46961294470118
ORBCOMM FM03            
1 25158U 98007B   26001.27471299  .00002784  00000+0  10074-2 0  9999
2 25158 107.9634 182.6623 0046854 262.3462  97.2355 14.35094022452454
ORBCOMM FM04            
1 25159U 98007C   26001.29479341  .00002507  00000+0  90933-3 0  9994
2 25159 107.9626 186.0600 0042622 259.7227  99.9106 14.35336049452649
ORBCOMM FM17            
1 25413U 98046A   26001.14384818  .00001604  00000+0  60007-3 0  9994
2 25413  44.9951  43.0286 0002085 181.1290 178.9553 14.35585267431618
ORBCOMM FM18            
1 25414U 98046B   26001.23369669  .00002659  00000+0  89495-3 0  9995
2 25414  44.9933 314.5979 0004142 226.5510 133.4994 14.39220371432778
ORBCOMM FM19            
1 25415U 98046C   26001.16027670  .00002650  00000+0  89531-3 0  9993
2 25415  44.9945 317.2484 0002932 231.0694 251.1359 14.39041515432710
