<?xml version="1.0" encoding="UTF-8"?>
<ndm xmlns:xsi="http://www.w3.org/2001/XMLSchema-instance" xsi:noNamespaceSchemaLocation="https://sanaregistry.org/r/ndmxml_unqualified/ndmxml-2.0.0-master-2.0.xsd">
<omm id="CCSDS_OMM_VERS" version="2.0">
<header><CREATION_DATE/><ORIGINATOR/></header><body><segment><metadata><OBJECT_NAME>ORBCOMM FM05</OBJECT_NAME><OBJECT_ID>1997-084F</OBJECT_ID><CENTER_NAME>EARTH</CENTER_NAME><REF_FRAME>TEME</REF_FRAME><TIME_SYSTEM>UTC</TIME_SYSTEM><MEAN_ELEMENT_THEORY>SGP4</MEAN_ELEMENT_THEORY></metadata><data><meanElements><EPOCH>2025-12-31T10:11:02.589792</EPOCH><MEAN_MOTION>14.46780828</MEAN_MOTION><ECCENTRICITY>.00031257</ECCENTRICITY><INCLINATION>45.0125</INCLINATION><RA_OF_ASC_NODE>140.4922</RA_OF_ASC_NODE><ARG_OF_PERICENTER>157.1104</ARG_OF_PERICENTER><MEAN_ANOMALY>202.9887</MEAN_ANOMALY></meanElements><tleParameters><EPHEMERIS_TYPE>0</EPHEMERIS_TYPE><CLASSIFICATION_TYPE>U</CLASSIFICATION_TYPE><NORAD_CAT_ID>25117</NORAD_CAT_ID><ELEMENT_SET_NO>999</ELEMENT_SET_NO><REV_AT_EPOCH>46916</REV_AT_EPOCH><BSTAR>.10623222E-2</BSTAR><MEAN_MOTION_DOT>.374E-4</MEAN_MOTION_DOT><MEAN_MOTION_DDOT>0</MEAN_MOTION_DDOT></tleParameters></data></segment></body></omm>
<omm id="CCSDS_OMM_VERS" version="2.0">
<header><CREATION_DATE/><ORIGINATOR/></header><body><segment><metadata><OBJECT_NAME>ORBCOMM FM06</OBJECT_NAME><OBJECT_ID>1997-084G</OBJECT_ID><CENTER_NAME>EARTH</CENTER_NAME><REF_FRAME>TEME</REF_FRAME><TIME_SYSTEM>UTC</TIME_SYSTEM><MEAN_ELEMENT_THEORY>SGP4</MEAN_ELEMENT_THEORY></metadata><data><meanElements><EPOCH>2025-12-31T16:14:19.792608</EPOCH><MEAN_MOTION>14.46947398</MEAN_MOTION><ECCENTRICITY>.00021538</ECCENTRICITY><INCLINATION>45.0120</INCLINATION><RA_OF_ASC_NODE>138.7787</RA_OF_ASC_NODE><ARG_OF_PERICENTER>171.0060</ARG_OF_PERICENTER><MEAN_ANOMALY>211.7678</MEAN_ANOMALY></meanElements><tleParameters><EPHEMERIS_TYPE>0</EPHEMERIS_TYPE><CLASSIFICATION_TYPE>U</CLASSIFICATION_TYPE><NORAD_CAT_ID>25118</NORAD_CAT_ID><ELEMENT_SET_NO>999</ELEMENT_SET_NO><REV_AT_EPOCH>47012</REV_AT_EPOCH><BSTAR>.11607736E-2</BSTAR><MEAN_MOTION_DOT>.4115E-4</MEAN_MOTION_DOT><MEAN_MOTION_DDOT>0</MEAN_MOTION_DDOT></tleParameters></data></segment></body></omm>
<omm id="CCSDS_OMM_VERS" version="2.0">
<header><CREATION_DATE/><ORIGINATOR/></header><body><segment><metadata><OBJECT_NAME>ORBCOMM FM07</OBJECT_NAME><OBJECT_ID>1997-084H</OBJECT_ID><CENTER_NAME>EARTH</CENTER_NAME><REF_FRAME>TEME</REF_FRAME><TIME_SYSTEM>UTC</TIME_SYSTEM><MEAN_ELEMENT_THEORY>SGP4</MEAN_ELEMENT_THEORY></metadata><data><meanElements><EPOCH>2025-12-31T16:25:36.565536</EPOCH><MEAN_MOTION>14.46961294</MEAN_MOTION><ECCENTRICITY>.00037965</ECCENTRICITY><INCLINATION>45.0098</INCLINATION><RA_OF_ASC_NODE>139.4870</RA_OF_ASC_NODE><ARG_OF_PERICENTER>151.0828</ARG_OF_PERICENTER><MEAN_ANOMALY>209.0235</MEAN_ANOMALY></meanElements><tleParameters><EPHEMERIS_TYPE>0</EPHEMERIS_TYPE><CLASSIFICATION_TYPE>U</CLASSIFICATION_TYPE><NORAD_CAT_ID>25119</NORAD_CAT_ID><ELEMENT_SET_NO>999</ELEMENT_SET_NO><REV_AT_EPOCH>47011</REV_AT_EPOCH><BSTAR>.99188044E-3</BSTAR><MEAN_MOTION_DOT>.3496E-4</MEAN_MOTION_DOT><MEAN_MOTION_DDOT>0</MEAN_MOTION_DDOT></tleParameters></data></segment></body></omm>
<omm id="CCSDS_OMM_VERS" version="2.0">
<header><CREATION_DATE/><ORIGINATOR/></header><body><segment><metadata><OBJECT_NAME>ORBCOMM FM03</OBJECT_NAME><OBJECT_ID>1998-007B</OBJECT_ID><CENTER_NAME>EARTH</CENTER_NAME><REF_FRAME>TEME</REF_FRAME><TIME_SYSTEM>UTC</TIME_SYSTEM><MEAN_ELEMENT_THEORY>SGP4</MEAN_ELEMENT_THEORY></metadata><data><meanElements><EPOCH>2026-01-01T06:35:35.202336</EPOCH><MEAN_MOTION>14.35094022</MEAN_MOTION><ECCENTRICITY>.00468549</ECCENTRICITY><INCLINATION>107.9634</INCLINATION><RA_OF_ASC_NODE>182.6623</RA_OF_ASC_NODE><ARG_OF_PERICENTER>262.3462</ARG_OF_PERICENTER><MEAN_ANOMALY>97.2355</MEAN_ANOMALY></meanElements><tleParameters><EPHEMERIS_TYPE>0</EPHEMERIS_TYPE><CLASSIFICATION_TYPE>U</CLASSIFICATION_TYPE><NORAD_CAT_ID>25158</NORAD_CAT_ID><ELEMENT_SET_NO>999</ELEMENT_SET_NO><REV_AT_EPOCH>45245</REV_AT_EPOCH><BSTAR>.10074073E-2</BSTAR><MEAN_MOTION_DOT>.2784E-4</MEAN_MOTION_DOT><MEAN_MOTION_DDOT>0</MEAN_MOTION_DDOT></tleParameters></data></segment></body></omm>
<omm id="CCSDS_OMM_VERS" version="2.0">
<header><CREATION_DATE/><ORIGINATOR/></header><body><segment><metadata><OBJECT_NAME>ORBCOMM FM04</OBJECT_NAME><OBJECT_ID>1998-007C</OBJECT_ID><CENTER_NAME>EARTH</CENTER_NAME><REF_FRAME>TEME</REF_FRAME><TIME_SYSTEM>UTC</TIME_SYSTEM><MEAN_ELEMENT_THEORY>SGP4</MEAN_ELEMENT_THEORY></metadata><data><meanElements><EPOCH>2026-01-01T07:04:30.150624</EPOCH><MEAN_MOTION>14.35336049</MEAN_MOTION><ECCENTRICITY>.00426224</ECCENTRICITY><INCLINATION>107.9626</INCLINATION><RA_OF_ASC_NODE>186.0600</RA_OF_ASC_NODE><ARG_OF_PERICENTER>259.7227</ARG_OF_PERICENTER><MEAN_ANOMALY>99.9106</MEAN_ANOMALY></meanElements><tleParameters><EPHEMERIS_TYPE>0</EPHEMERIS_TYPE><CLASSIFICATION_TYPE>U</CLASSIFICATION_TYPE><NORAD_CAT_ID>25159</NORAD_CAT_ID><ELEMENT_SET_NO>999</ELEMENT_SET_NO><REV_AT_EPOCH>45264</REV_AT_EPOCH><BSTAR>.90933389E-3</BSTAR><MEAN_MOTION_DOT>.2507E-4</MEAN_MOTION_DOT><MEAN_MOTION_DDOT>0</MEAN_MOTION_DDOT></tleParameters></data></segment></body></omm>
<omm id="CCSDS_OMM_VERS" version="2.0">
<header><CREATION_DATE/><ORIGINATOR/></header><body><segment><metadata><OBJECT_NAME>ORBCOMM FM17</OBJECT_NAME><OBJECT_ID>1998-046A</OBJECT_ID><CENTER_NAME>EARTH</CENTER_NAME><REF_FRAME>TEME</REF_FRAME><TIME_SYSTEM>UTC</TIME_SYSTEM><MEAN_ELEMENT_THEORY>SGP4</MEAN_ELEMENT_THEORY></metadata><data><meanElements><EPOCH>2026-01-01T03:27:08.482752</EPOCH><MEAN_MOTION>14.35585267</MEAN_MOTION><ECCENTRICITY>.00020859</ECCENTRICITY><INCLINATION>44.9951</INCLINATION><RA_OF_ASC_NODE>43.0286</RA_OF_ASC_NODE><ARG_OF_PERICENTER>181.1290</ARG_OF_PERICENTER><MEAN_ANOMALY>178.9553</MEAN_ANOMALY></meanElements><tleParameters><EPHEMERIS_TYPE>0</EPHEMERIS_TYPE><CLASSIFICATION_TYPE>U</CLASSIFICATION_TYPE><NORAD_CAT_ID>25413</NORAD_CAT_ID><ELEMENT_SET_NO>999</ELEMENT_SET_NO><REV_AT_EPOCH>43161</REV_AT_EPOCH><BSTAR>.60007121E-3</BSTAR><MEAN_MOTION_DOT>.1604E-4</MEAN_MOTION_DOT><MEAN_MOTION_DDOT>0</MEAN_MOTION_DDOT></tleParameters></data></segment></body></omm>
<omm id="CCSDS_OMM_VERS" version="2.0">
<header><CREATION_DATE/><ORIGINATOR/></header><body><segment><metadata><OBJECT_NAME>ORBCOMM FM18</OBJECT_NAME><OBJECT_ID>1998-046B</OBJECT_ID><CENTER_NAME>EARTH</CENTER_NAME><REF_FRAME>TEME</REF_FRAME><TIME_SYSTEM>UTC</TIME_SYSTEM><MEAN_ELEMENT_THEORY>SGP4</MEAN_ELEMENT_THEORY></metadata><data><meanElements><EPOCH>2026-01-01T05:36:31.394016</EPOCH><MEAN_MOTION>14.39220371</MEAN_MOTION><ECCENTRICITY>.00041428</ECCENTRICITY><INCLINATION>44.9933</INCLINATION><RA_OF_ASC_NODE>314.5979</RA_OF_ASC_NODE><ARG_OF_PERICENTER>226.5510</ARG_OF_PERICENTER><MEAN_ANOMALY>133.4994</MEAN_ANOMALY></meanElements><tleParameters><EPHEMERIS_TYPE>0</EPHEMERIS_TYPE><CLASSIFICATION_TYPE>U</CLASSIFICATION_TYPE><NORAD_CAT_ID>25414</NORAD_CAT_ID><ELEMENT_SET_NO>999</ELEMENT_SET_NO><REV_AT_EPOCH>43277</REV_AT_EPOCH><BSTAR>.89494794E-3</BSTAR><MEAN_MOTION_DOT>.2659E-4</MEAN_MOTION_DOT><MEAN_MOTION_DDOT>0</MEAN_MOTION_DDOT></tleParameters></data></segment></body></omm>
<omm id="CCSDS_OMM_VERS" version="2.0">
<header><CREATION_DATE/><ORIGINATOR/></header><body><segment><metadata><OBJECT_NAME>ORBCOMM FM19</OBJECT_NAME><OBJECT_ID>1998-046C</OBJECT_ID><CENTER_NAME>EARTH</CENTER_NAME><REF_FRAME>TEME</REF_FRAME><TIME_SYSTEM>UTC</TIME_SYSTEM><MEAN_ELEMENT_THEORY>SGP4</MEAN_ELEMENT_THEORY></metadata><data><meanElements><EPOCH>2026-01-01T03:50:47.906880</EPOCH><MEAN_MOTION>14.39041515</MEAN_MOTION><ECCENTRICITY>.00029321</ECCENTRICITY><INCLINATION>44.9945</INCLINATION><RA_OF_ASC_NODE>317.2484</RA_OF_ASC_NODE><ARG_OF_PERICENTER>231.0694</ARG_OF_PERICENTER><MEAN_ANOMALY>251.1359</MEAN_ANOMALY></meanElements><tleParameters><EPHEMERIS_TYPE>0</EPHEMERIS_TYPE><CLASSIFICATION_TYPE>U</CLASSIFICATION_TYPE><NORAD_CAT_ID>25415</NORAD_CAT_ID><ELEMENT_SET_NO>999</ELEMENT_SET_NO><REV_AT_EPOCH>43271</REV_AT_EPOCH><BSTAR>.89530743E-3</BSTAR><MEAN_MOTION_DOT>.265E-4</MEAN_MOTION_DOT><MEAN_MOTION_DDOT>0</MEAN_MOTION_DDOT></tleParameters></data></segment></body></omm>

</ndm>
